{
  "type": "FeatureCollection",
  "features": [
    {
      "type": "Feature",
      "properties": {
        "norad_id": 66385,
        "name": "STARLINK-35659",
        "group": "last-30-days",
        "lat": 30.95766200693878,
        "lon": 101.0429302338339,
        "alt_km": 442.88487161319426,
        "timestamp": "2025-12-03T13:52:08.344635+00:00",
        "meta_object_name": "STARLINK-35659",
        "meta_object_id": "2025-257F",
        "meta_epoch": "2025-12-03T08:00:01.999872",
        "meta_mean_motion": 15.39551814,
        "meta_eccentricity": 0.00013486,
        "meta_inclination": 53.1592,
        "meta_ra_of_asc_node": 308.922,
        "meta_arg_of_pericenter": 91.373,
        "meta_mean_anomaly": 132.5363,
        "meta_ephemeris_type": 0,
        "meta_classification_type": "U",
        "meta_norad_cat_id": 66385,
        "meta_element_set_no": 999,
        "meta_rev_at_epoch": 498,
        "meta_bstar": 0.0022502041,
        "meta_mean_motion_dot": 0.00090478,
        "meta_mean_motion_ddot": 0,
        "tle_line1": "1 66385U 25257F   25337.33335648  .00090478  00000+0  22502-2 0  9994",
        "tle_line2": "2 66385  53.1592 308.9220 0001348  91.3730 132.5363 15.39551814  4984"
      },
      "geometry": {
        "type": "Point",
        "coordinates": [
          101.0429302338339,
          30.95766200693878
        ]
      }
    },
    {
      "type": "Feature",
      "properties": {
        "norad_id": 66386,
        "name": "STARLINK-35651",
        "group": "last-30-days",
        "lat": -5.37711199680525,
        "lon": 131.72258976180402,
        "alt_km": 441.04129768662096,
        "timestamp": "2025-12-03T13:52:08.344646+00:00",
        "meta_object_name": "STARLINK-35651",
        "meta_object_id": "2025-257G",
        "meta_epoch": "2025-12-03T08:00:01.999872",
        "meta_mean_motion": 15.43431112,
        "meta_eccentricity": 0.00014877,
        "meta_inclination": 53.159,
        "meta_ra_of_asc_node": 308.8341,
        "meta_arg_of_pericenter": 87.7559,
        "meta_mean_anomaly": 179.933,
        "meta_ephemeris_type": 0,
        "meta_classification_type": "U",
        "meta_norad_cat_id": 66386,
        "meta_element_set_no": 999,
        "meta_rev_at_epoch": 498,
        "meta_bstar": -0.049535446,
        "meta_mean_motion_dot": -0.02005367,
        "meta_mean_motion_ddot": 0,
        "tle_line1": "1 66386U 25257G   25337.33335648 -.02005367  00000+0 -49535-1 0  9996",
        "tle_line2": "2 66386  53.1590 308.8341 0001487  87.7559 179.9330 15.43431112  4980"
      },
      "geometry": {
        "type": "Point",
        "coordinates": [
          131.72258976180402,
          -5.37711199680525
        ]
      }
    },
    {
      "type": "Feature",
      "properties": {
        "norad_id": 66387,
        "name": "STARLINK-35661",
        "group": "last-30-days",
        "lat": -6.856593018083626,
        "lon": 132.84548638788073,
        "alt_km": 441.18922903082967,
        "timestamp": "2025-12-03T13:52:08.344657+00:00",
        "meta_object_name": "STARLINK-35661",
        "meta_object_id": "2025-257H",
        "meta_epoch": "2025-12-03T08:00:01.999872",
        "meta_mean_motion": 15.43423945,
        "meta_eccentricity": 0.00013974,
        "meta_inclination": 53.1591,
        "meta_ra_of_asc_node": 308.8313,
        "meta_arg_of_pericenter": 93.4555,
        "meta_mean_anomaly": 176.098,
        "meta_ephemeris_type": 0,
        "meta_classification_type": "U",
        "meta_norad_cat_id": 66387,
        "meta_element_set_no": 999,
        "meta_rev_at_epoch": 498,
        "meta_bstar": -0.049756923,
        "meta_mean_motion_dot": -0.02012868,
        "meta_mean_motion_ddot": 0,
        "tle_line1": "1 66387U 25257H   25337.33335648 -.02012868  00000+0 -49757-1 0  9997",
        "tle_line2": "2 66387  53.1591 308.8313 0001397  93.4555 176.0980 15.43423945  4985"
      },
      "geometry": {
        "type": "Point",
        "coordinates": [
          132.84548638788073,
          -6.856593018083626
        ]
      }
    },
    {
      "type": "Feature",
      "properties": {
        "norad_id": 66388,
        "name": "STARLINK-35647",
        "group": "last-30-days",
        "lat": -18.280797378900548,
        "lon": 141.98379501363007,
        "alt_km": 434.18311719116355,
        "timestamp": "2025-12-03T13:52:08.344667+00:00",
        "meta_object_name": "STARLINK-35647",
        "meta_object_id": "2025-257J",
        "meta_epoch": "2025-12-03T08:00:01.999872",
        "meta_mean_motion": 15.46275114,
        "meta_eccentricity": 0.00013002,
        "meta_inclination": 53.1591,
        "meta_ra_of_asc_node": 308.807,
        "meta_arg_of_pericenter": 95.7844,
        "meta_mean_anomaly": 185.7653,
        "meta_ephemeris_type": 0,
        "meta_classification_type": "U",
        "meta_norad_cat_id": 66388,
        "meta_element_set_no": 999,
        "meta_rev_at_epoch": 498,
        "meta_bstar": -0.045347396,
        "meta_mean_motion_dot": -0.02022414,
        "meta_mean_motion_ddot": 0,
        "tle_line1": "1 66388U 25257J   25337.33335648 -.02022414  00000+0 -45347-1 0  9997",
        "tle_line2": "2 66388  53.1591 308.8070 0001300  95.7844 185.7653 15.46275114  4986"
      },
      "geometry": {
        "type": "Point",
        "coordinates": [
          141.98379501363007,
          -18.280797378900548
        ]
      }
    },
    {
      "type": "Feature",
      "properties": {
        "norad_id": 66389,
        "name": "STARLINK-35694",
        "group": "last-30-days",
        "lat": -24.961441619293012,
        "lon": 148.05000579303834,
        "alt_km": 422.9737719868617,
        "timestamp": "2025-12-03T13:52:08.344678+00:00",
        "meta_object_name": "STARLINK-35694",
        "meta_object_id": "2025-257K",
        "meta_epoch": "2025-12-03T06:45:58.202496",
        "meta_mean_motion": 15.49293095,
        "meta_eccentricity": 0.00017324,
        "meta_inclination": 53.159,
        "meta_ra_of_asc_node": 309.0394,
        "meta_arg_of_pericenter": 78.4994,
        "meta_mean_anomaly": 281.621,
        "meta_ephemeris_type": 0,
        "meta_classification_type": "U",
        "meta_norad_cat_id": 66389,
        "meta_element_set_no": 999,
        "meta_rev_at_epoch": 491,
        "meta_bstar": 0.0010033925,
        "meta_mean_motion_dot": 0.00055725,
        "meta_mean_motion_ddot": 0,
        "tle_line1": "1 66389U 25257K   25337.28192364  .00055725  00000+0  10034-2 0  9991",
        "tle_line2": "2 66389  53.1590 309.0394 0001732  78.4994 281.6210 15.49293095  4910"
      },
      "geometry": {
        "type": "Point",
        "coordinates": [
          148.05000579303834,
          -24.961441619293012
        ]
      }
    },
    {
      "type": "Feature",
      "properties": {
        "norad_id": 66390,
        "name": "STARLINK-35665",
        "group": "last-30-days",
        "lat": -47.0878022826997,
        "lon": -178.693994589283,
        "alt_km": 424.09475855032906,
        "timestamp": "2025-12-03T13:52:08.344688+00:00",
        "meta_object_name": "STARLINK-35665",
        "meta_object_id": "2025-257L",
        "meta_epoch": "2025-12-03T06:37:05.158560",
        "meta_mean_motion": 15.49335019,
        "meta_eccentricity": 0.00014679,
        "meta_inclination": 53.1587,
        "meta_ra_of_asc_node": 308.9968,
        "meta_arg_of_pericenter": 86.8381,
        "meta_mean_anomaly": 273.2796,
        "meta_ephemeris_type": 0,
        "meta_classification_type": "U",
        "meta_norad_cat_id": 66390,
        "meta_element_set_no": 999,
        "meta_rev_at_epoch": 501,
        "meta_bstar": 0.0014965418,
        "meta_mean_motion_dot": 0.00083758,
        "meta_mean_motion_ddot": 0,
        "tle_line1": "1 66390U 25257L   25337.27575415  .00083758  00000+0  14965-2 0  9998",
        "tle_line2": "2 66390  53.1587 308.9968 0001467  86.8381 273.2796 15.49335019  5012"
      },
      "geometry": {
        "type": "Point",
        "coordinates": [
          -178.693994589283,
          -47.0878022826997
        ]
      }
    },
    {
      "type": "Feature",
      "properties": {
        "norad_id": 66391,
        "name": "STARLINK-35656",
        "group": "last-30-days",
        "lat": -44.49345106200906,
        "lon": 174.99518492232482,
        "alt_km": 453.00930088705263,
        "timestamp": "2025-12-03T13:52:08.344698+00:00",
        "meta_object_name": "STARLINK-35656",
        "meta_object_id": "2025-257M",
        "meta_epoch": "2025-12-03T08:00:01.999872",
        "meta_mean_motion": 15.39548944,
        "meta_eccentricity": 0.00017459,
        "meta_inclination": 53.1593,
        "meta_ra_of_asc_node": 308.7055,
        "meta_arg_of_pericenter": 60.6685,
        "meta_mean_anomaly": 264.4327,
        "meta_ephemeris_type": 0,
        "meta_classification_type": "U",
        "meta_norad_cat_id": 66391,
        "meta_element_set_no": 999,
        "meta_rev_at_epoch": 508,
        "meta_bstar": 0.0030874688,
        "meta_mean_motion_dot": 0.00124847,
        "meta_mean_motion_ddot": 0,
        "tle_line1": "1 66391U 25257M   25337.33335648  .00124847  00000+0  30875-2 0  9991",
        "tle_line2": "2 66391  53.1593 308.7055 0001745  60.6685 264.4327 15.39548944  5082"
      },
      "geometry": {
        "type": "Point",
        "coordinates": [
          174.99518492232482,
          -44.49345106200906
        ]
      }
    }
  ]
}